[{"OBJECT_NAME":"OPTUS D3","OBJECT_ID":"2009-044B","EPOCH":"2026-03-06T09:47:38.627808","MEAN_MOTION":1.00272589,"ECCENTRICITY":0.00031251,"INCLINATION":0.8817,"RA_OF_ASC_NODE":269.5562,"ARG_OF_PERICENTER":72.1506,"MEAN_ANOMALY":125.4328,"EPHEMERIS_TYPE":0,"CLASSIFICATION_TYPE":"U","NORAD_CAT_ID":35756,"ELEMENT_SET_NO":999,"REV_AT_EPOCH":6053,"BSTAR":0,"MEAN_MOTION_DOT":-1.51e-6,"MEAN_MOTION_DDOT":0},{"OBJECT_NAME":"NIMIQ 5","OBJECT_ID":"2009-050A","EPOCH":"2026-03-06T18:44:36.958848","MEAN_MOTION":1.0027248,"ECCENTRICITY":0.0002651,"INCLINATION":0.0469,"RA_OF_ASC_NODE":268.4835,"ARG_OF_PERICENTER":82.8008,"MEAN_ANOMALY":21.6529,"EPHEMERIS_TYPE":0,"CLASSIFICATION_TYPE":"U","NORAD_CAT_ID":35873,"ELEMENT_SET_NO":999,"REV_AT_EPOCH":6031,"BSTAR":0,"MEAN_MOTION_DOT":-2.6e-6,"MEAN_MOTION_DDOT":0},{"OBJECT_NAME":"AMAZONAS 2","OBJECT_ID":"2009-054A","EPOCH":"2026-03-06T11:57:24.172416","MEAN_MOTION":1.00272151,"ECCENTRICITY":0.00034572,"INCLINATION":1.5485,"RA_OF_ASC_NODE":84.4405,"ARG_OF_PERICENTER":264.2831,"MEAN_ANOMALY":294.0462,"EPHEMERIS_TYPE":0,"CLASSIFICATION_TYPE":"U","NORAD_CAT_ID":35942,"ELEMENT_SET_NO":999,"REV_AT_EPOCH":6015,"BSTAR":0,"MEAN_MOTION_DOT":-2.87e-6,"MEAN_MOTION_DDOT":0},{"OBJECT_NAME":"COMSATBW-1","OBJECT_ID":"2009-054B","EPOCH":"2026-03-06T19:23:33.224352","MEAN_MOTION":1.00270123,"ECCENTRICITY":0.000348,"INCLINATION":0.0278,"RA_OF_ASC_NODE":96.2575,"ARG_OF_PERICENTER":264.3498,"MEAN_ANOMALY":157.8091,"EPHEMERIS_TYPE":0,"CLASSIFICATION_TYPE":"U","NORAD_CAT_ID":35943,"ELEMENT_SET_NO":999,"REV_AT_EPOCH":6028,"BSTAR":0,"MEAN_MOTION_DOT":2.2e-7,"MEAN_MOTION_DDOT":0},{"OBJECT_NAME":"NSS-12","OBJECT_ID":"2009-058A","EPOCH":"2026-03-06T08:17:38.639904","MEAN_MOTION":1.00273352,"ECCENTRICITY":0.0004908,"INCLINATION":0.0029,"RA_OF_ASC_NODE":267.1484,"ARG_OF_PERICENTER":63.9853,"MEAN_ANOMALY":14.3354,"EPHEMERIS_TYPE":0,"CLASSIFICATION_TYPE":"U","NORAD_CAT_ID":36032,"ELEMENT_SET_NO":999,"REV_AT_EPOCH":5988,"BSTAR":0,"MEAN_MOTION_DOT":6.7e-7,"MEAN_MOTION_DDOT":0},{"OBJECT_NAME":"THOR 6","OBJECT_ID":"2009-058B","EPOCH":"2026-03-06T13:57:04.529952","MEAN_MOTION":1.00272749,"ECCENTRICITY":0.00020162,"INCLINATION":0.0252,"RA_OF_ASC_NODE":235.2474,"ARG_OF_PERICENTER":134.2146,"MEAN_ANOMALY":3.2578,"EPHEMERIS_TYPE":0,"CLASSIFICATION_TYPE":"U","NORAD_CAT_ID":36033,"ELEMENT_SET_NO":999,"REV_AT_EPOCH":5997,"BSTAR":0,"MEAN_MOTION_DOT":-1.4e-7,"MEAN_MOTION_DDOT":0},{"OBJECT_NAME":"INTELSAT 14 (IS-14)","OBJECT_ID":"2009-064A","EPOCH":"2026-03-06T18:52:43.680288","MEAN_MOTION":1.00272602,"ECCENTRICITY":0.0002475,"INCLINATION":0.0272,"RA_OF_ASC_NODE":91.3809,"ARG_OF_PERICENTER":253.5274,"MEAN_ANOMALY":57.7792,"EPHEMERIS_TYPE":0,"CLASSIFICATION_TYPE":"U","NORAD_CAT_ID":36097,"ELEMENT_SET_NO":999,"REV_AT_EPOCH":5957,"BSTAR":0,"MEAN_MOTION_DOT":-2.77e-6,"MEAN_MOTION_DDOT":0},{"OBJECT_NAME":"ATLAS 5 CENTAUR R/B","OBJECT_ID":"2009-064B","EPOCH":"2026-03-06T09:29:00.900384","MEAN_MOTION":1.76308405,"ECCENTRICITY":0.56359885,"INCLINATION":21.9372,"RA_OF_ASC_NODE":81.0445,"ARG_OF_PERICENTER":213.4588,"MEAN_ANOMALY":100.5343,"EPHEMERIS_TYPE":0,"CLASSIFICATION_TYPE":"U","NORAD_CAT_ID":36098,"ELEMENT_SET_NO":999,"REV_AT_EPOCH":10488,"BSTAR":0,"MEAN_MOTION_DOT":-1.02e-6,"MEAN_MOTION_DDOT":0},{"OBJECT_NAME":"EUTELSAT 36B","OBJECT_ID":"2009-065A","EPOCH":"2026-03-06T19:19:56.070048","MEAN_MOTION":1.00272997,"ECCENTRICITY":0.0005866,"INCLINATION":0.2328,"RA_OF_ASC_NODE":77.7421,"ARG_OF_PERICENTER":272.101,"MEAN_ANOMALY":155.1303,"EPHEMERIS_TYPE":0,"CLASSIFICATION_TYPE":"U","NORAD_CAT_ID":36101,"ELEMENT_SET_NO":999,"REV_AT_EPOCH":5968,"BSTAR":0,"MEAN_MOTION_DOT":1.09e-6,"MEAN_MOTION_DDOT":0},{"OBJECT_NAME":"INTELSAT 15 (IS-15)","OBJECT_ID":"2009-067A","EPOCH":"2026-03-06T19:29:47.624928","MEAN_MOTION":1.00270306,"ECCENTRICITY":0.0002374,"INCLINATION":0.0181,"RA_OF_ASC_NODE":163.0292,"ARG_OF_PERICENTER":198.1544,"MEAN_ANOMALY":180.9506,"EPHEMERIS_TYPE":0,"CLASSIFICATION_TYPE":"U","NORAD_CAT_ID":36106,"ELEMENT_SET_NO":999,"REV_AT_EPOCH":4020,"BSTAR":0,"MEAN_MOTION_DOT":0,"MEAN_MOTION_DDOT":0},{"OBJECT_NAME":"BLOCK DM-SL R/B","OBJECT_ID":"2009-067B","EPOCH":"2026-03-06T04:06:36.376704","MEAN_MOTION":1.7359395,"ECCENTRICITY":0.44287713,"INCLINATION":12.7553,"RA_OF_ASC_NODE":314.6072,"ARG_OF_PERICENTER":141.7459,"MEAN_ANOMALY":12.2593,"EPHEMERIS_TYPE":0,"CLASSIFICATION_TYPE":"U","NORAD_CAT_ID":36107,"ELEMENT_SET_NO":999,"REV_AT_EPOCH":10313,"BSTAR":0,"MEAN_MOTION_DOT":-9.5e-7,"MEAN_MOTION_DDOT":0},{"OBJECT_NAME":"WGS F3 (USA 211)","OBJECT_ID":"2009-068A","EPOCH":"2026-03-06T18:20:54.231648","MEAN_MOTION":1.00963646,"ECCENTRICITY":0.0002341,"INCLINATION":0.3598,"RA_OF_ASC_NODE":86.2719,"ARG_OF_PERICENTER":314.8467,"MEAN_ANOMALY":242.0709,"EPHEMERIS_TYPE":0,"CLASSIFICATION_TYPE":"U","NORAD_CAT_ID":36108,"ELEMENT_SET_NO":999,"REV_AT_EPOCH":4556,"BSTAR":0,"MEAN_MOTION_DOT":9.8e-7,"MEAN_MOTION_DDOT":0},{"OBJECT_NAME":"DELTA 4 R/B","OBJECT_ID":"2009-068B","EPOCH":"2026-03-05T18:48:38.261088","MEAN_MOTION":1.19262209,"ECCENTRICITY":0.81684547,"INCLINATION":24.7265,"RA_OF_ASC_NODE":314.4878,"ARG_OF_PERICENTER":167.2669,"MEAN_ANOMALY":351.3653,"EPHEMERIS_TYPE":0,"CLASSIFICATION_TYPE":"U","NORAD_CAT_ID":36109,"ELEMENT_SET_NO":999,"REV_AT_EPOCH":7046,"BSTAR":0.00095686368,"MEAN_MOTION_DOT":-1.83e-6,"MEAN_MOTION_DDOT":0},{"OBJECT_NAME":"DIRECTV 12","OBJECT_ID":"2009-075A","EPOCH":"2026-03-06T13:28:07.305024","MEAN_MOTION":1.00272318,"ECCENTRICITY":3.647e-5,"INCLINATION":0.0028,"RA_OF_ASC_NODE":95.7619,"ARG_OF_PERICENTER":280.3135,"MEAN_ANOMALY":247.5154,"EPHEMERIS_TYPE":0,"CLASSIFICATION_TYPE":"U","NORAD_CAT_ID":36131,"ELEMENT_SET_NO":999,"REV_AT_EPOCH":4552,"BSTAR":0,"MEAN_MOTION_DOT":-1.08e-6,"MEAN_MOTION_DDOT":0},{"OBJECT_NAME":"BEIDOU-2 G1","OBJECT_ID":"2010-001A","EPOCH":"2026-03-06T19:47:51.645984","MEAN_MOTION":1.00270467,"ECCENTRICITY":0.0004803,"INCLINATION":4.0536,"RA_OF_ASC_NODE":60.6833,"ARG_OF_PERICENTER":281.0045,"MEAN_ANOMALY":260.2775,"EPHEMERIS_TYPE":0,"CLASSIFICATION_TYPE":"U","NORAD_CAT_ID":36287,"ELEMENT_SET_NO":999,"REV_AT_EPOCH":5914,"BSTAR":0,"MEAN_MOTION_DOT":-2.82e-6,"MEAN_MOTION_DDOT":0},{"OBJECT_NAME":"BREEZE-M R/B","OBJECT_ID":"2010-002B","EPOCH":"2026-03-06T18:55:35.904864","MEAN_MOTION":1.0404015,"ECCENTRICITY":0.0212688,"INCLINATION":10.724,"RA_OF_ASC_NODE":37.3685,"ARG_OF_PERICENTER":252.5126,"MEAN_ANOMALY":121.7079,"EPHEMERIS_TYPE":0,"CLASSIFICATION_TYPE":"U","NORAD_CAT_ID":36359,"ELEMENT_SET_NO":999,"REV_AT_EPOCH":6116,"BSTAR":0,"MEAN_MOTION_DOT":-1.22e-6,"MEAN_MOTION_DDOT":0},{"OBJECT_NAME":"SDO","OBJECT_ID":"2010-005A","EPOCH":"2026-03-06T13:28:37.258176","MEAN_MOTION":1.00275573,"ECCENTRICITY":2.353e-5,"INCLINATION":34.435,"RA_OF_ASC_NODE":87.8954,"ARG_OF_PERICENTER":54.9241,"MEAN_ANOMALY":121.7196,"EPHEMERIS_TYPE":0,"CLASSIFICATION_TYPE":"U","NORAD_CAT_ID":36395,"ELEMENT_SET_NO":999,"REV_AT_EPOCH":5903,"BSTAR":0,"MEAN_MOTION_DOT":-6.6e-7,"MEAN_MOTION_DDOT":0}]
